IRIDIUM 33 DEB          
1 34487U 97051GC  26061.79202951  .00000806  00000+0  23212-3 0  9994
2 34487  86.3484 337.9268 0029169 223.2985 199.8028 14.43369102894031
IRIDIUM 33 DEB          
1 34488U 97051GD  26053.04643645  .01238203  00000+0  64727-2 0  9993
2 34488  86.3081 269.5420 0004770  70.8002 289.3788 15.78089963903416
IRIDIUM 33 DEB          
1 34492U 97051GH  26061.45967688  .00013732  00000+0  46205-2 0  9996
2 34492  86.4711 302.3655 0187293 342.8326 135.1688 14.27569367861954
IRIDIUM 33 DEB          
1 34497U 97051GN  26060.37736337  .00002181  00000+0  84493-3 0  9994
2 34497  86.2798  18.7885 0082499  84.6063  44.9371 14.27743173880053
IRIDIUM 33 DEB          
1 34508U 97051GZ  26061.03352526  .00003890  00000+0  12256-2 0  9990
2 34508  86.3654  68.9871 0061770 273.5932  85.8204 14.39064140884497
IRIDIUM 33 DEB          
1 34521U 97051HN  26061.75843538  .00008637  00000+0  16242-2 0  9995
2 34521  86.3832 355.2917 0005200  24.0784 336.0671 14.64537109896437
IRIDIUM 33 DEB          
1 34525U 97051HS  26061.59732227  .00001618  00000+0  47625-3 0  9995
2 34525  86.3765  12.7452 0004329 157.7578  20.7413 14.43149773892396
IRIDIUM 33 DEB          
1 34529U 97051HW  26061.78329904  .00000818  00000+0  25003-3 0  9991
2 34529  86.3687   1.2895 0003484 322.2881  37.8074 14.40726776892948
IRIDIUM 33 DEB          
1 34538U 97051JF  26061.69357481  .00003320  00000+0  97365-3 0  9993
2 34538  86.2803 330.5376 0036607  60.8801 327.0946 14.43232241889095
IRIDIUM 33 DEB          
1 34540U 97051JH  26061.04850613  .00009448  00000+0  13277-2 0  9996
2 34540  86.3056 271.2885 0014390 253.1646 238.8484 14.77225563901912
IRIDIUM 33 DEB          
1 34648U 97051JZ  26061.52757631  .00008090  00000+0  37115-2 0  9993
2 34648  86.3887 249.6857 0176261  45.8439 315.7082 14.13305147860878
IRIDIUM 33 DEB          
1 34651U 97051KC  26061.08156559  .00007375  00000+0  27487-2 0  9996
2 34651  86.2791 106.7700 0131972 308.5558  50.3865 14.27156942870274
IRIDIUM 33 DEB          
1 34652U 97051KD  26060.98346245  .00004246  00000+0  82116-3 0  9993
2 34652  86.3308 304.7100 0029250  28.6955  34.7686 14.62898346896422
IRIDIUM 33 DEB          
1 34690U 97051KM  26061.28230976  .00002021  00000+0  46006-3 0  9999
2 34690  86.3815   2.4115 0012347 102.3291  50.3492 14.55427803892510
IRIDIUM 33 DEB          
1 34693U 97051KQ  26055.99059176  .01322234  00000+0  68577-2 0  9992
2 34693  86.2833 265.9163 0003939  44.5223 315.6368 15.78525000900614
IRIDIUM 33 DEB          
1 34696U 97051KT  26061.24628348  .00042964  00000+0  66815-2 0  9994
2 34696  86.1819 350.3526 0057233 259.7497 263.3155 14.71707100878398
