[{"OBJECT_NAME":"IRIDIUM 33 DEB","OBJECT_ID":"1997-051GC","EPOCH":"2026-03-02T19:00:31.349664","MEAN_MOTION":14.43369102,"ECCENTRICITY":0.0029169,"INCLINATION":86.3484,"RA_OF_ASC_NODE":337.9268,"ARG_OF_PERICENTER":223.2985,"MEAN_ANOMALY":199.8028,"EPHEMERIS_TYPE":0,"CLASSIFICATION_TYPE":"U","NORAD_CAT_ID":34487,"ELEMENT_SET_NO":999,"REV_AT_EPOCH":89403,"BSTAR":0.00023212,"MEAN_MOTION_DOT":8.06e-6,"MEAN_MOTION_DDOT":0},{"OBJECT_NAME":"IRIDIUM 33 DEB","OBJECT_ID":"1997-051GD","EPOCH":"2026-02-22T01:06:52.109280","MEAN_MOTION":15.78089963,"ECCENTRICITY":0.00047702,"INCLINATION":86.3081,"RA_OF_ASC_NODE":269.542,"ARG_OF_PERICENTER":70.8002,"MEAN_ANOMALY":289.3788,"EPHEMERIS_TYPE":0,"CLASSIFICATION_TYPE":"U","NORAD_CAT_ID":34488,"ELEMENT_SET_NO":999,"REV_AT_EPOCH":90341,"BSTAR":0.0064727089,"MEAN_MOTION_DOT":0.01238203,"MEAN_MOTION_DDOT":0},{"OBJECT_NAME":"IRIDIUM 33 DEB","OBJECT_ID":"1997-051GH","EPOCH":"2026-03-02T11:01:56.082432","MEAN_MOTION":14.27569367,"ECCENTRICITY":0.01872934,"INCLINATION":86.4711,"RA_OF_ASC_NODE":302.3655,"ARG_OF_PERICENTER":342.8326,"MEAN_ANOMALY":135.1688,"EPHEMERIS_TYPE":0,"CLASSIFICATION_TYPE":"U","NORAD_CAT_ID":34492,"ELEMENT_SET_NO":999,"REV_AT_EPOCH":86195,"BSTAR":0.0046205222,"MEAN_MOTION_DOT":0.00013732,"MEAN_MOTION_DDOT":0},{"OBJECT_NAME":"IRIDIUM 33 DEB","OBJECT_ID":"1997-051GN","EPOCH":"2026-03-01T09:03:24.195168","MEAN_MOTION":14.27743173,"ECCENTRICITY":0.00824996,"INCLINATION":86.2798,"RA_OF_ASC_NODE":18.7885,"ARG_OF_PERICENTER":84.6063,"MEAN_ANOMALY":44.9371,"EPHEMERIS_TYPE":0,"CLASSIFICATION_TYPE":"U","NORAD_CAT_ID":34497,"ELEMENT_SET_NO":999,"REV_AT_EPOCH":88005,"BSTAR":0.00084492746,"MEAN_MOTION_DOT":2.181e-5,"MEAN_MOTION_DDOT":0},{"OBJECT_NAME":"IRIDIUM 33 DEB","OBJECT_ID":"1997-051GZ","EPOCH":"2026-03-02T00:48:16.582464","MEAN_MOTION":14.3906414,"ECCENTRICITY":0.006177,"INCLINATION":86.3654,"RA_OF_ASC_NODE":68.9871,"ARG_OF_PERICENTER":273.5932,"MEAN_ANOMALY":85.8204,"EPHEMERIS_TYPE":0,"CLASSIFICATION_TYPE":"U","NORAD_CAT_ID":34508,"ELEMENT_SET_NO":999,"REV_AT_EPOCH":88449,"BSTAR":0.0012256306,"MEAN_MOTION_DOT":3.89e-5,"MEAN_MOTION_DDOT":0},{"OBJECT_NAME":"IRIDIUM 33 DEB","OBJECT_ID":"1997-051HN","EPOCH":"2026-03-02T18:12:08.816832","MEAN_MOTION":14.64537109,"ECCENTRICITY":0.00052,"INCLINATION":86.3832,"RA_OF_ASC_NODE":355.2917,"ARG_OF_PERICENTER":24.0784,"MEAN_ANOMALY":336.0671,"EPHEMERIS_TYPE":0,"CLASSIFICATION_TYPE":"U","NORAD_CAT_ID":34521,"ELEMENT_SET_NO":999,"REV_AT_EPOCH":89643,"BSTAR":0.0016242,"MEAN_MOTION_DOT":8.637e-5,"MEAN_MOTION_DDOT":0},{"OBJECT_NAME":"IRIDIUM 33 DEB","OBJECT_ID":"1997-051HS","EPOCH":"2026-03-02T14:20:08.644128","MEAN_MOTION":14.43149773,"ECCENTRICITY":0.0004329,"INCLINATION":86.3765,"RA_OF_ASC_NODE":12.7452,"ARG_OF_PERICENTER":157.7578,"MEAN_ANOMALY":20.7413,"EPHEMERIS_TYPE":0,"CLASSIFICATION_TYPE":"U","NORAD_CAT_ID":34525,"ELEMENT_SET_NO":999,"REV_AT_EPOCH":89239,"BSTAR":0.00047625,"MEAN_MOTION_DOT":1.618e-5,"MEAN_MOTION_DDOT":0},{"OBJECT_NAME":"IRIDIUM 33 DEB","OBJECT_ID":"1997-051HW","EPOCH":"2026-03-02T18:47:57.037056","MEAN_MOTION":14.40726776,"ECCENTRICITY":0.0003484,"INCLINATION":86.3687,"RA_OF_ASC_NODE":1.2895,"ARG_OF_PERICENTER":322.2881,"MEAN_ANOMALY":37.8074,"EPHEMERIS_TYPE":0,"CLASSIFICATION_TYPE":"U","NORAD_CAT_ID":34529,"ELEMENT_SET_NO":999,"REV_AT_EPOCH":89294,"BSTAR":0.00025003,"MEAN_MOTION_DOT":8.18e-6,"MEAN_MOTION_DDOT":0},{"OBJECT_NAME":"IRIDIUM 33 DEB","OBJECT_ID":"1997-051JF","EPOCH":"2026-03-02T16:38:44.863584","MEAN_MOTION":14.43232241,"ECCENTRICITY":0.0036607,"INCLINATION":86.2803,"RA_OF_ASC_NODE":330.5376,"ARG_OF_PERICENTER":60.8801,"MEAN_ANOMALY":327.0946,"EPHEMERIS_TYPE":0,"CLASSIFICATION_TYPE":"U","NORAD_CAT_ID":34538,"ELEMENT_SET_NO":999,"REV_AT_EPOCH":88909,"BSTAR":0.00097365,"MEAN_MOTION_DOT":3.32e-5,"MEAN_MOTION_DDOT":0},{"OBJECT_NAME":"IRIDIUM 33 DEB","OBJECT_ID":"1997-051JH","EPOCH":"2026-03-02T01:09:50.929632","MEAN_MOTION":14.77225563,"ECCENTRICITY":0.00143902,"INCLINATION":86.3056,"RA_OF_ASC_NODE":271.2885,"ARG_OF_PERICENTER":253.1646,"MEAN_ANOMALY":238.8484,"EPHEMERIS_TYPE":0,"CLASSIFICATION_TYPE":"U","NORAD_CAT_ID":34540,"ELEMENT_SET_NO":999,"REV_AT_EPOCH":90191,"BSTAR":0.0013277362,"MEAN_MOTION_DOT":9.448e-5,"MEAN_MOTION_DDOT":0},{"OBJECT_NAME":"IRIDIUM 33 DEB","OBJECT_ID":"1997-051JZ","EPOCH":"2026-03-02T12:39:42.593184","MEAN_MOTION":14.13305147,"ECCENTRICITY":0.01762614,"INCLINATION":86.3887,"RA_OF_ASC_NODE":249.6857,"ARG_OF_PERICENTER":45.8439,"MEAN_ANOMALY":315.7082,"EPHEMERIS_TYPE":0,"CLASSIFICATION_TYPE":"U","NORAD_CAT_ID":34648,"ELEMENT_SET_NO":999,"REV_AT_EPOCH":86087,"BSTAR":0.0037115499,"MEAN_MOTION_DOT":8.09e-5,"MEAN_MOTION_DDOT":0},{"OBJECT_NAME":"IRIDIUM 33 DEB","OBJECT_ID":"1997-051KC","EPOCH":"2026-03-02T01:57:27.266976","MEAN_MOTION":14.27156942,"ECCENTRICITY":0.01319726,"INCLINATION":86.2791,"RA_OF_ASC_NODE":106.77,"ARG_OF_PERICENTER":308.5558,"MEAN_ANOMALY":50.3865,"EPHEMERIS_TYPE":0,"CLASSIFICATION_TYPE":"U","NORAD_CAT_ID":34651,"ELEMENT_SET_NO":999,"REV_AT_EPOCH":87027,"BSTAR":0.0027487206,"MEAN_MOTION_DOT":7.375e-5,"MEAN_MOTION_DDOT":0},{"OBJECT_NAME":"IRIDIUM 33 DEB","OBJECT_ID":"1997-051KD","EPOCH":"2026-03-01T23:36:11.155680","MEAN_MOTION":14.62898346,"ECCENTRICITY":0.002925,"INCLINATION":86.3308,"RA_OF_ASC_NODE":304.71,"ARG_OF_PERICENTER":28.6955,"MEAN_ANOMALY":34.7686,"EPHEMERIS_TYPE":0,"CLASSIFICATION_TYPE":"U","NORAD_CAT_ID":34652,"ELEMENT_SET_NO":999,"REV_AT_EPOCH":89642,"BSTAR":0.00082116,"MEAN_MOTION_DOT":4.246e-5,"MEAN_MOTION_DDOT":0},{"OBJECT_NAME":"IRIDIUM 33 DEB","OBJECT_ID":"1997-051KM","EPOCH":"2026-03-02T06:46:31.563264","MEAN_MOTION":14.55427803,"ECCENTRICITY":0.00123472,"INCLINATION":86.3815,"RA_OF_ASC_NODE":2.4115,"ARG_OF_PERICENTER":102.3291,"MEAN_ANOMALY":50.3492,"EPHEMERIS_TYPE":0,"CLASSIFICATION_TYPE":"U","NORAD_CAT_ID":34690,"ELEMENT_SET_NO":999,"REV_AT_EPOCH":89251,"BSTAR":0.00046005635,"MEAN_MOTION_DOT":2.021e-5,"MEAN_MOTION_DDOT":0},{"OBJECT_NAME":"IRIDIUM 33 DEB","OBJECT_ID":"1997-051KQ","EPOCH":"2026-02-24T23:46:27.128064","MEAN_MOTION":15.78525,"ECCENTRICITY":0.00039393,"INCLINATION":86.2833,"RA_OF_ASC_NODE":265.9163,"ARG_OF_PERICENTER":44.5223,"MEAN_ANOMALY":315.6368,"EPHEMERIS_TYPE":0,"CLASSIFICATION_TYPE":"U","NORAD_CAT_ID":34693,"ELEMENT_SET_NO":999,"REV_AT_EPOCH":90061,"BSTAR":0.0068576941,"MEAN_MOTION_DOT":0.01322234,"MEAN_MOTION_DDOT":0},{"OBJECT_NAME":"IRIDIUM 33 DEB","OBJECT_ID":"1997-051KT","EPOCH":"2026-03-02T05:54:38.892672","MEAN_MOTION":14.717071,"ECCENTRICITY":0.00572334,"INCLINATION":86.1819,"RA_OF_ASC_NODE":350.3526,"ARG_OF_PERICENTER":259.7497,"MEAN_ANOMALY":263.3155,"EPHEMERIS_TYPE":0,"CLASSIFICATION_TYPE":"U","NORAD_CAT_ID":34696,"ELEMENT_SET_NO":999,"REV_AT_EPOCH":87839,"BSTAR":0.0066815318,"MEAN_MOTION_DOT":0.00042964,"MEAN_MOTION_DDOT":0}]
